#cP2015  5  1  0  0  0.00000000      96   u+U UNDEF FIT  GFZ                    
## 1842 432000.00000000   900.00000000 57143 0.0000000000000                    
+   71   C01C02C03C04C05C06C07C08C09C10C11C12C14E11E12E14E18                    
+        E19G01G02G03G04G05G06G07G09G10G11G12G13G14G15G16G17                    
+        G19G20G21G22G23G24G25G26G27G28G29G30G31G32R01R02R03                    
+        R04R05R06R07R08R09R10R11R12R13R14R15R16R18R19R20R21                    
+        R22R23R24 00 00 00 00 00 00 00 00 00 00 00 00 00 00                    
++        10 10 10 10 10 10 10 10  9 10  6  9 10  8  8  9  9                    
++         7  5  6  6  5  5  7 10  5  8  5  6  7  6  6  6  6                    
++         5  5  5  8  6  5  6  5  7  7  6  8  5  5 10  8 10                    
++         6  9  6  6 10  8  9 10 10  8 10  8  7  5 10  9  8                    
++         8  7  8  0  0  0  0  0  0  0  0  0  0  0  0  0  0                    
%c M  cc GPS ccc cccc cccc cccc cccc ccccc ccccc ccccc ccccc                    
%c cc cc ccc ccc cccc cccc cccc cccc ccccc ccccc ccccc ccccc                    
%f  1.2500000  1.025000000  0.00000000000  0.000000000000000                    
%f  0.0000000  0.000000000  0.00000000000  0.000000000000000                    
%i    0    0    0    0      0      0      0      0         0                    
%i    0    0    0    0      0      0      0      0         0                    
/* PCV:IGS08_1842 OL/AL:FES2004  NONE     YN CLK:CoN ORB:CoN                    
/*     GeoForschungsZentrum Potsdam                                             
/*                                                                              
/*                                                                              
*  2015  5  1  4  0  0.00000000                                                 
PC01 -32281.652735  27120.825834    882.600428   -444.693816                    
PC02   7285.303362  41523.947326    -30.992105   -885.262073                    
PC03 -14842.910694  39450.908390      7.164480    247.495708                    
PC04 -39622.486847  14451.597864    303.320140    105.546315                    
PC05  21953.318062  35996.789772   -603.678951    -48.309400                    
PC06 -14626.034766  38500.692017  -8271.773181   -631.855998                    
PC07  -8312.866347  24817.961108  33146.478105    -49.660359                    
PC08 -25678.353446  24109.786068 -23293.332305   -757.485743                    
PC09  -6143.822117  41091.958268   6386.390227    833.082768                    
PC10   5543.979149  31421.033693  27714.240652    833.844851                    
PC11  25404.368216 -10905.745331   3416.467801   -560.416478                    
PC12  23897.042700   2022.409219 -14141.487279    422.318738                    
PC14  15732.312965 -14329.500671  18128.875201    270.163903                    
PE11  24593.940355   7868.402404 -14478.638536     74.301950                    
PE12   7823.463318  15831.953565 -23744.146644   -836.372024                    
PE14  14866.257446 -19419.877594  14168.786130    948.820241                    
PE18   1141.226703  19314.409455 -21655.751834   3815.665471                    
PE19 -14590.777654  25497.183423  -3562.659878     -4.645549                    
PG01  22931.598524  13480.895252   1772.258451     -6.134881                    
PG02  -8951.611460 -19381.524893  16448.238678    563.068541                    
PG03  13556.890057  10903.362262  20071.219918    313.991942                    
PG04  18373.656519  17956.559414  -7586.474955    -13.089752                    
PG05  -4007.963360 -25215.875659  -7005.171193   -247.141528                    
PG06   7107.308354 -13476.330672  21758.426601    149.434255                    
PG07  22361.384904   3518.711813 -14089.164319    459.076277                    
PG09  24377.957192  -5594.707963   8953.155527   -147.842753                    
PG10   9565.245360 -21528.935523  11453.797000   -173.079908                    
PG11  22637.983005  11876.181761  -7977.550810   -575.121106                    
PG12 -11199.591236 -14676.597302  19086.310226    289.213284                    
PG13  -1007.285884 -15425.029878 -21759.195946   -110.460749                    
PG14 -19530.005182  15329.656371   9453.963049     66.870378                    
PG15 -14174.683653  -9385.771361 -20559.627570   -246.647207                    
PG16   1708.826413  25390.767778  -6949.102918   -133.548081                    
PG17  19840.914158 -15482.234997   8448.331516   -168.950903                    
PG19  10441.715217  11804.719955 -21626.644568   -509.046960                    
PG20  -2762.571739 -26251.072567  -2843.601787    315.544111                    
PG21 -21506.569787   -182.340608 -15112.934931   -441.775367                    
PG22  -9968.433437  21067.891704 -12342.709689    345.534197                    
PG23  20599.401846   3073.796398  16868.508113   -105.418555                    
PG24 -22148.515716 -14759.559455  -1189.466892    -47.532332                    
PG25 -14785.644411   -325.719379  21965.439114    -24.784150                    
PG26  -3935.500282  25967.517689   3923.760554     25.518223                    
PG27  -1117.030350  16636.623984 -20661.688580     68.764064                    
PG28  12216.758254 -17311.125779 -15342.475810    436.718120                    
PG29 -23950.363097   2400.432303  11199.737397    607.670946                    
PG30  16021.274623  -5928.785865 -20365.811820    -65.340856                    
PG31  -4237.036575  14909.591125  21653.155527    317.149307                    
PG32   5294.567322  23602.196912  11556.219011   -162.609509                    
PR01  13390.067847 -18009.053273  12116.116390   -154.154360                    
PR02   6743.402494 -23985.013479  -5518.398698    130.754101                    
PR03  -3862.643504 -15640.326214 -19748.496500     40.647749                    
PR04 -12262.042956   2161.476126 -22245.401377    119.321080                    
PR05 -13321.461598  18258.914852 -11835.665284      5.881694                    
PR06  -6135.194881  23925.530630   6294.376807     66.854877                    
PR07   4029.158064  15430.555814  19933.418593   -120.042713                    
PR08  12169.524739  -1688.337033  22404.267004    -26.653276                    
PR09   5004.037745  18878.446079  16317.662683      1.338288                    
PR10  15381.180733  20389.172884    561.374180     14.254915                    
PR11  17131.854761   9962.361486 -16015.385890      5.826385                    
PR12   8744.523312  -6337.816365 -23143.721310      3.178807                    
PR13  -5386.124462 -18916.077705 -16266.831702   -481.817072                    
PR14 -15701.297774 -20052.577373    396.002531    162.202446                    
PR15 -17140.722319 -10675.408708  15654.377923     44.251527                    
PR16  -7966.111309   7297.309764  23069.091093     -0.671103                    
PR18 -24459.994939    -86.540321   7120.785627     48.182878                    
PR19 -21010.253511   8104.344328 -11971.084238   -124.500634                    
PR20  -4667.384319  11040.430685 -22496.236855   -171.623152                    
PR21  13009.738734   7943.556379 -20439.867151      9.627451                    
PR22  24585.982649     14.838738  -7058.428119    161.048678                    
PR23  21391.134435  -8163.897596  11248.496525     11.394148                    
PR24   6624.899919 -11185.099910  21931.819518   -123.954299                    
EOF                                     
